{"type": "FeatureCollection", "features": [{"type": "Feature", "properties": {"norad_id": 49537, "name": "COSMOS 1408 DEB", "group": "cosmos-1408-debris", "lat": -17.747623112059916, "lon": -73.10654352563697, "alt_km": 119.25144667506265, "timestamp": "2025-12-03T15:48:03.342332+00:00", "meta": {"OBJECT_NAME": "COSMOS 1408 DEB", "OBJECT_ID": "1982-092AA", "EPOCH": "2025-12-01T10:29:21.651360", "MEAN_MOTION": 16.33498888, "ECCENTRICITY": 0.00127731, "INCLINATION": 82.5092, "RA_OF_ASC_NODE": 107.1368, "ARG_OF_PERICENTER": 299.8571, "MEAN_ANOMALY": 60.1455, "EPHEMERIS_TYPE": 0, "CLASSIFICATION_TYPE": "U", "NORAD_CAT_ID": 49537, "ELEMENT_SET_NO": 999, "REV_AT_EPOCH": 22403, "BSTAR": 0.00094222941, "MEAN_MOTION_DOT": 0.05878558, "MEAN_MOTION_DDOT": -1.252052e-06}, "tle": {"line1": "1 49537U 82092AA  25335.43705615  .05878558 -12521-5  94223-3 0  9994", "line2": "2 49537  82.5092 107.1368 0012773 299.8571  60.1455 16.33498888224033"}}, "geometry": {"type": "Point", "coordinates": [-73.10654352563697, -17.747623112059916]}}, {"type": "Feature", "properties": {"norad_id": 50032, "name": "COSMOS 1408 DEB", "group": "cosmos-1408-debris", "lat": 28.665341092780977, "lon": 71.90890556666722, "alt_km": 436.7145205106326, "timestamp": "2025-12-03T15:48:03.342348+00:00", "meta": {"OBJECT_NAME": "COSMOS 1408 DEB", "OBJECT_ID": "1982-092RU", "EPOCH": "2025-12-03T06:21:09.734400", "MEAN_MOTION": 15.45540484, "ECCENTRICITY": 0.00146794, "INCLINATION": 82.5655, "RA_OF_ASC_NODE": 68.2184, "ARG_OF_PERICENTER": 245.8027, "MEAN_ANOMALY": 114.1688, "EPHEMERIS_TYPE": 0, "CLASSIFICATION_TYPE": "U", "NORAD_CAT_ID": 50032, "ELEMENT_SET_NO": 999, "REV_AT_EPOCH": 22457, "BSTAR": 0.00015452341, "MEAN_MOTION_DOT": 7.487e-05, "MEAN_MOTION_DDOT": 0}, "tle": {"line1": "1 50032U 82092RU  25337.26469600  .00007487  00000+0  15452-3 0  9999", "line2": "2 50032  82.5655  68.2184 0014679 245.8027 114.1688 15.45540484224576"}}, "geometry": {"type": "Point", "coordinates": [71.90890556666722, 28.665341092780977]}}, {"type": "Feature", "properties": {"norad_id": 50058, "name": "COSMOS 1408 DEB", "group": "cosmos-1408-debris", "lat": 0.5110297355095821, "lon": 78.9060735033006, "alt_km": 388.4529402515964, "timestamp": "2025-12-03T15:48:03.342359+00:00", "meta": {"OBJECT_NAME": "COSMOS 1408 DEB", "OBJECT_ID": "1982-092SW", "EPOCH": "2025-12-03T08:07:02.388576", "MEAN_MOTION": 15.63243355, "ECCENTRICITY": 0.00162902, "INCLINATION": 82.6136, "RA_OF_ASC_NODE": 79.1744, "ARG_OF_PERICENTER": 132.3779, "MEAN_ANOMALY": 227.8861, "EPHEMERIS_TYPE": 0, "CLASSIFICATION_TYPE": "U", "NORAD_CAT_ID": 50058, "ELEMENT_SET_NO": 999, "REV_AT_EPOCH": 22657, "BSTAR": 0.00042304369, "MEAN_MOTION_DOT": 0.00039112, "MEAN_MOTION_DDOT": 0}, "tle": {"line1": "1 50058U 82092SW  25337.33822209  .00039112  00000+0  42304-3 0  9999", "line2": "2 50058  82.6136  79.1744 0016290 132.3779 227.8861 15.63243355226571"}}, "geometry": {"type": "Point", "coordinates": [78.9060735033006, 0.5110297355095821]}}, {"type": "Feature", "properties": {"norad_id": 50404, "name": "COSMOS 1408 DEB", "group": "cosmos-1408-debris", "lat": -27.050693064528016, "lon": -139.6930946477363, "alt_km": 560.5199999221923, "timestamp": "2025-12-03T15:48:03.342370+00:00", "meta": {"OBJECT_NAME": "COSMOS 1408 DEB", "OBJECT_ID": "1982-092ADS", "EPOCH": "2025-12-03T03:12:53.924544", "MEAN_MOTION": 15.11741121, "ECCENTRICITY": 0.01766229, "INCLINATION": 82.2064, "RA_OF_ASC_NODE": 224.8525, "ARG_OF_PERICENTER": 232.1925, "MEAN_ANOMALY": 126.3205, "EPHEMERIS_TYPE": 0, "CLASSIFICATION_TYPE": "U", "NORAD_CAT_ID": 50404, "ELEMENT_SET_NO": 999, "REV_AT_EPOCH": 21048, "BSTAR": 0.0034989906, "MEAN_MOTION_DOT": 0.00088069, "MEAN_MOTION_DDOT": 0}, "tle": {"line1": "1 50404U 82092ADS 25337.13395746  .00088069  00000+0  34990-2 0  9999", "line2": "2 50404  82.2064 224.8525 0176622 232.1925 126.3205 15.11741121210481"}}, "geometry": {"type": "Point", "coordinates": [-139.6930946477363, -27.050693064528016]}}, {"type": "Feature", "properties": {"norad_id": 50621, "name": "COSMOS 1408 DEB", "group": "cosmos-1408-debris", "lat": -76.54060955200684, "lon": -63.32855825222365, "alt_km": 401.03888570239087, "timestamp": "2025-12-03T15:48:03.342380+00:00", "meta": {"OBJECT_NAME": "COSMOS 1408 DEB", "OBJECT_ID": "1982-092ALR", "EPOCH": "2025-12-03T00:48:05.547456", "MEAN_MOTION": 15.55877061, "ECCENTRICITY": 0.00288902, "INCLINATION": 82.5703, "RA_OF_ASC_NODE": 84.2784, "ARG_OF_PERICENTER": 188.0266, "MEAN_ANOMALY": 172.0531, "EPHEMERIS_TYPE": 0, "CLASSIFICATION_TYPE": "U", "NORAD_CAT_ID": 50621, "ELEMENT_SET_NO": 999, "REV_AT_EPOCH": 22099, "BSTAR": 0.00051794749, "MEAN_MOTION_DOT": 0.00036668, "MEAN_MOTION_DDOT": 0}, "tle": {"line1": "1 50621U 82092ALR 25337.03339754  .00036668  00000+0  51795-3 0  9997", "line2": "2 50621  82.5703  84.2784 0028890 188.0266 172.0531 15.55877061220998"}}, "geometry": {"type": "Point", "coordinates": [-63.32855825222365, -76.54060955200684]}}]}